      2.10          N: GNSS NAV DATA                        RINEX VERSION / TYPE
fic2rin                                 10/27/2022 00:17:41 PGM / RUN BY / DATE
                                                            END OF HEADER
30 22 10 26  2  0  0.0 -.537121668458D-03  .113686837722D-12  .000000000000D+00
     .420000000000D+02  .321875000000D+02  .472805408529D-08 -.226867328902D+01
     .137649476528D-05  .594073510729D-02  .130403786898D-04  .515370150375D+04
     .266400000000D+06  .670552253723D-07  .300549601977D+01 -.102445483208D-06
     .936205570800D+00  .116281250000D+03 -.265949489676D+01 -.798068957061D-08
    -.279297348141D-09  .100000000000D+01  .223300000000D+04  .000000000000D+00
     .240000000000D+01  .000000000000D+00  .372529029846D-08  .420000000000D+02
     .259200000000D+06  .400000000000D+01
29 22 10 26  2  0  0.0 -.562462490052D-03 -.284217094304D-11  .000000000000D+00
     .900000000000D+02 -.755937500000D+02  .448268672190D-08  .611316833857D+00
    -.407919287682D-05  .215300137643D-02  .184215605259D-05  .515362718010D+04
     .266400000000D+06  .130385160446D-07 -.112055580991D+01  .260770320892D-07
     .978915761096D+00  .352250000000D+03  .247797285427D+01 -.837463455143D-08
    -.350014579512D-09  .100000000000D+01  .223300000000D+04  .000000000000D+00
     .340000000000D+01  .000000000000D+00 -.102445483208D-07  .900000000000D+02
     .259200000000D+06  .400000000000D+01
32 22 10 26  2  0  0.0 -.275130849332D-03 -.121644916362D-10  .000000000000D+00
     .740000000000D+02 -.293750000000D+02  .501878048092D-08  .144222851749D+01
    -.154972076416D-05  .615213043056D-02  .456720590591D-05  .515365342522D+04
     .266400000000D+06 -.122934579849D-06  .193682477344D+01  .502914190292D-07
     .958392010840D+00  .288375000000D+03 -.229838576378D+01 -.843570852398D-08
    -.301083969927D-09  .100000000000D+01  .223300000000D+04  .000000000000D+00
     .240000000000D+01  .000000000000D+00  .465661287308D-09  .740000000000D+02
     .259200000000D+06  .400000000000D+01
24 22 10 26  2  0  0.0  .854264944792D-04 -.150066625793D-10  .000000000000D+00
     .100000000000D+03  .859375000000D+01  .494056293713D-08 -.122122394280D+01
     .517815351486D-06  .132839524886D-01  .122692435980D-04  .515367300797D+04
     .266400000000D+06  .309199094772D-06  .290920249178D+01  .949949026108D-07
     .934561874082D+00  .125343750000D+03  .851312437586D+00 -.813533886952D-08
    -.447875798682D-09  .100000000000D+01  .223300000000D+04  .000000000000D+00
     .240000000000D+01  .000000000000D+00  .279396772385D-08  .100000000000D+03
     .259200000000D+06  .400000000000D+01
26 22 10 26  2  0  0.0  .233744736761D-03  .125055521494D-11  .000000000000D+00
     .940000000000D+02  .135875000000D+03  .515057168484D-08  .249791332885D+01
     .711716711521D-05  .733897380996D-02  .660307705402D-05  .515358667183D+04
     .266400000000D+06 -.199303030968D-06 -.230489256154D+01 -.782310962677D-07
     .936058464147D+00  .238750000000D+03  .384791307280D+00 -.840749306298D-08
     .450375902821D-09  .100000000000D+01  .223300000000D+04  .000000000000D+00
     .340000000000D+01  .000000000000D+00  .698491930962D-08  .940000000000D+02
     .259200000000D+06  .400000000000D+01
17 22 10 26  2  0  0.0  .672181602567D-03  .352429196937D-11  .000000000000D+00
     .500000000000D+02 -.806875000000D+02  .465519390751D-08  .728446235921D+00
    -.436417758465D-05  .138380463468D-01  .276602804661D-05  .515364015388D+04
     .266400000000D+06 -.232830643654D-06 -.113415087878D+01 -.763684511185D-07
     .976761406490D+00  .339156250000D+03 -.146939223054D+01 -.865178895317D-08
    -.384658879729D-09  .100000000000D+01  .223300000000D+04  .000000000000D+00
     .240000000000D+01  .000000000000D+00 -.111758708954D-07  .500000000000D+02
     .259200000000D+06  .400000000000D+01
12 22 10 26  2  0  0.0 -.296601094306D-03 -.443378667114D-11  .000000000000D+00
     .127000000000D+03  .134937500000D+03  .454268922124D-08 -.288012756403D+01
     .694580376148D-05  .856186426245D-02  .548176467419D-05  .515372611237D+04
     .266400000000D+06  .191852450371D-06 -.217336476425D+01 -.838190317154D-07
     .967568720401D+00  .275593750000D+03  .131651962315D+01 -.817891211309D-08
     .516450083648D-09  .100000000000D+01  .223300000000D+04  .000000000000D+00
     .240000000000D+01  .000000000000D+00 -.125728547573D-07  .127000000000D+03
     .259200000000D+06  .400000000000D+01
10 22 10 26  2  0  0.0 -.909436494112D-05 -.170530256582D-11  .000000000000D+00
     .730000000000D+02  .430937500000D+02  .415838749925D-08  .275327298101D+01
     .221095979214D-05  .808570545632D-02  .911392271519D-05  .515368163872D+04
     .266400000000D+06 -.204890966415D-07  .895032311997D+00 -.160187482834D-06
     .975526890885D+00  .210968750000D+03 -.250697732789D+01 -.769424906779D-08
     .655027284516D-09  .100000000000D+01  .223300000000D+04  .000000000000D+00
     .240000000000D+01  .000000000000D+00  .232830643654D-08  .730000000000D+02
     .259200000000D+06  .400000000000D+01
9  22 10 26  2  0  0.0 -.278052873909D-03  .534328137292D-11  .000000000000D+00
     .800000000000D+02 -.328437500000D+02  .503628120990D-08  .111557660145D+01
    -.176206231117D-05  .261794449762D-02  .493600964546D-05  .515372639084D+04
     .266400000000D+06  .186264514923D-08  .192455453196D+01 -.391155481339D-07
     .954654018155D+00  .279781250000D+03  .191583495211D+01 -.839070664947D-08
    -.308941440080D-09  .100000000000D+01  .223300000000D+04  .000000000000D+00
     .240000000000D+01  .000000000000D+00  .931322574615D-09  .800000000000D+02
     .259200000000D+06  .400000000000D+01
19 22 10 26  2  0  0.0  .228737015277D-03  .500222085975D-11  .000000000000D+00
     .126000000000D+03 -.930312500000D+02  .458590530708D-08  .284942463813D+01
    -.472739338875D-05  .904650404118D-02  .233761966228D-05  .515372867393D+04
     .266400000000D+06  .108033418655D-06 -.108943990370D+01  .223517417908D-06
     .975721513117D+00  .341375000000D+03  .220015910073D+01 -.832606109958D-08
    -.404659712844D-09  .100000000000D+01  .223300000000D+04  .000000000000D+00
     .240000000000D+01  .000000000000D+00 -.153668224812D-07  .126000000000D+03
     .259200000000D+06  .400000000000D+01
22 22 10 26  2  0  0.0  .352513045073D-03  .704858393874D-11  .000000000000D+00
     .750000000000D+02 -.385000000000D+02  .494877756502D-08  .494296049072D+00
    -.206567347050D-05  .134828393348D-01  .542402267456D-05  .515374202347D+04
     .266400000000D+06 -.203028321266D-06  .202801337858D+01 -.130385160446D-07
     .961581799845D+00  .277156250000D+03 -.184447042301D+01 -.852214069565D-08
    -.441804117201D-09  .100000000000D+01  .223300000000D+04  .000000000000D+00
     .240000000000D+01  .000000000000D+00 -.838190317154D-08  .750000000000D+02
     .259200000000D+06  .400000000000D+01
23 22 10 26  2  0  0.0 -.113062560558D-05 -.113686837722D-12  .000000000000D+00
     .167000000000D+03  .370937500000D+02  .426803492364D-08 -.231333472530D+01
     .197440385818D-05  .281080976129D-02  .943243503571D-05  .515362595367D+04
     .266400000000D+06 -.149011611938D-07  .868901196743D+00 -.279396772385D-07
     .970648840289D+00  .203437500000D+03  .304846445168D+01 -.781925427475D-08
     .665742016542D-09  .100000000000D+01  .223300000000D+04  .000000000000D+00
     .240000000000D+01  .000000000000D+00 -.838190317154D-08  .167000000000D+03
     .259200000000D+06  .400000000000D+01
14 22 10 26  2  0  0.0 -.910414382815D-04  .432009983342D-11  .000000000000D+00
     .440000000000D+02  .139250000000D+03  .486484549748D-08 -.291952858535D+01
     .728294253349D-05  .234618480317D-02  .505894422531D-05  .515366267395D+04
     .266400000000D+06  .298023223877D-07 -.220868078140D+01 -.316649675369D-07
     .950974365179D+00  .279718750000D+03 -.303421315433D+01 -.840320717017D-08
     .478591363823D-09  .100000000000D+01  .223300000000D+04  .000000000000D+00
     .240000000000D+01  .000000000000D+00 -.791624188423D-08  .556000000000D+03
     .259200000000D+06  .400000000000D+01
11 22 10 26  2  0  0.0 -.304519198835D-04 -.500222085975D-11  .000000000000D+00
     .129000000000D+03 -.103843750000D+03  .417231665088D-08  .255335000528D+00
    -.543147325516D-05  .784529838711D-03  .127665698528D-04  .515366196442D+04
     .266400000000D+06  .242143869400D-07 -.963494026879D-01  .204890966415D-07
     .964465546387D+00  .135343750000D+03 -.298038598476D+01 -.783961226560D-08
    -.111076055335D-09  .100000000000D+01  .223300000000D+04  .000000000000D+00
     .240000000000D+01  .000000000000D+00 -.884756445885D-08  .385000000000D+03
     .259200000000D+06  .400000000000D+01
18 22 10 26  2  0  0.0  .154646113515D-05 -.136424205266D-10  .000000000000D+00
     .113000000000D+03 -.102500000000D+03  .390051961516D-08 -.130993362008D+01
    -.538304448128D-05  .293186970521D-02  .118035823107D-04  .515372167587D+04
     .266400000000D+06 -.465661287308D-07 -.130110680249D+00 -.800937414169D-07
     .973032587764D+00  .159750000000D+03  .311653388362D+01 -.765174729742D-08
    -.967897459671D-10  .100000000000D+01  .223300000000D+04  .000000000000D+00
     .240000000000D+01  .000000000000D+00 -.838190317154D-08  .881000000000D+03
     .259200000000D+06  .400000000000D+01
29 22 10 26  1 59 44.0 -.562463421375D-03 -.284217094304D-11  .000000000000D+00
     .330000000000D+02 -.755937500000D+02  .448268672190D-08  .608982964573D+00
    -.407919287682D-05  .215300091077D-02  .184215605259D-05  .515362717819D+04
     .266384000000D+06  .130385160446D-07 -.112055565923D+01  .260770320892D-07
     .978915780114D+00  .352250000000D+03  .247797294936D+01 -.837463455143D-08
    -.350014579512D-09  .100000000000D+01  .223300000000D+04  .000000000000D+00
     .240000000000D+01  .000000000000D+00 -.102445483208D-07  .330000000000D+02
     .259980000000D+06  .400000000000D+01
